SL-8 R/B                
1 11574U 79089B   26085.25299241  .00000259  00000+0  86167-4 0  9993
2 11574  74.0681  60.3796 0016839 231.0223 128.9435 14.42359977438498
SL-14 R/B               
1 11672U 80005B   26085.03627040  .00000530  00000+0  50984-4 0  9990
2 11672  82.5115 291.7272 0017200 107.3287 252.9815 14.90947880478921
SL-8 R/B                
1 12139U 81003B   26085.02390266  .00020439  00000+0  51351-3 0  9992
2 12139  82.9350 274.9115 0261165 121.7689 240.9276 15.11671572317141
SL-3 R/B                
1 12465U 81046B   26085.26474884  .00011143  00000+0  25578-3 0  9990
2 12465  81.2288 269.8308 0018347 323.8005  36.1995 15.42390203440986
SL-3 R/B                
1 12904U 81103B   26085.27958873  .00004701  00000+0  20705-3 0  9997
2 12904  81.1605 193.9716 0012683 227.2307 132.7858 15.21568899975759
SL-3 R/B                
1 13068U 82013B   26085.28096256  .00003603  00000+0  15477-3 0  9999
2 13068  81.1743 141.3243 0023430 122.9026 237.4465 15.22164229406876
SL-3 R/B                
1 13154U 82039B   26085.28803096  .00002439  00000+0  14665-3 0  9995
2 13154  81.1570 196.8237 0028796 269.7110  90.0815 15.10170933384145
SL-3 R/B                
1 13403U 82079B   26085.26823600  .00005452  00000+0  21536-3 0  9990
2 13403  81.1482 173.5029 0025549 110.1911 250.2074 15.25018825380225
SL-14 R/B               
1 13553U 82092B   26085.13218557  .00000426  00000+0  45046-4 0  9995
2 13553  82.5663 126.0183 0018903 244.6927 169.4261 14.86680782331371
SL-3 R/B                
1 13819U 83010B   26085.12924315  .00014961  00000+0  29510-3 0  9992
2 13819  81.1051 342.0861 0016290 355.6276   4.4823 15.46905025360485
SL-3 R/B                
1 14208U 83075B   26085.27123156  .00010356  00000+0  27000-3 0  9992
2 14208  97.6146  90.4816 0021954 165.2633 194.9257 15.38797908332704
COSMOS 1536             
1 14699U 84013A   26085.06969458  .00005751  00000+0  23535-3 0  9991
2 14699  82.5421  91.5611 0013080 218.6006 141.4297 15.24039935275116
SL-14 R/B               
1 14820U 84027B   26085.32539226  .00000541  00000+0  59042-4 0  9992
2 14820  82.5410 229.4084 0016481 279.1670  80.7682 14.85993197250103
SL-8 R/B                
1 15483U 85006B   26084.45140903  .00000325  00000+0  11625-3 0  9993
2 15483  74.0444 232.1428 0017810 145.5024 270.1591 14.37794350156297
SL-12 R/B(2)            
1 15772U 85042D   26085.30417781  .00000122  00000+0  76107-4 0  9992
2 15772  71.1080  52.6240 0032852 100.5971   3.6806 14.21986990116755
SL-14 R/B               
1 15945U 85069B   26085.30511548  .00000500  00000+0  53682-4 0  9992
2 15945  82.5304   9.3132 0019875 133.9594 226.3267 14.86450671175306
SL-16 R/B               
1 16182U 85097B   26085.30354732  .00000052  00000+0  50109-4 0  9990
2 16182  71.0009 105.5760 0009505 240.3328 208.3879 14.16603371 89581
